CCSDS_OMM_VERS = 2.0
CREATION_DATE  = 
ORIGINATOR     = 

OBJECT_NAME    = ATLAS CENTAUR R/B
OBJECT_ID      = 1972-065B
CENTER_NAME    = EARTH
REF_FRAME      = TEME
TIME_SYSTEM    = UTC
MEAN_ELEMENT_THEORY = SGP/SGP4

EPOCH          = 2026-03-15T21:49:50.331648
MEAN_MOTION    = 14.77704903
ECCENTRICITY   = .00329737
INCLINATION    = 35.0009
RA_OF_ASC_NODE = 269.3023
ARG_OF_PERICENTER = 61.7647
MEAN_ANOMALY   = 298.6376

EPHEMERIS_TYPE = 0
CLASSIFICATION_TYPE = U
NORAD_CAT_ID   = 6155
ELEMENT_SET_NO = 999
REV_AT_EPOCH   = 84218
BSTAR          = .1630388E-3
MEAN_MOTION_DOT = .1173E-4
MEAN_MOTION_DDOT = 0

CCSDS_OMM_VERS = 2.0
CREATION_DATE  = 
ORIGINATOR     = 

OBJECT_NAME    = SL-8 R/B
OBJECT_ID      = 1975-112B
CENTER_NAME    = EARTH
REF_FRAME      = TEME
TIME_SYSTEM    = UTC
MEAN_ELEMENT_THEORY = SGP/SGP4

EPOCH          = 2026-03-15T21:39:38.540160
MEAN_MOTION    = 14.38207454
ECCENTRICITY   = .00144414
INCLINATION    = 74.0636
RA_OF_ASC_NODE = 7.4839
ARG_OF_PERICENTER = 98.1855
MEAN_ANOMALY   = 262.0938

EPHEMERIS_TYPE = 0
CLASSIFICATION_TYPE = U
NORAD_CAT_ID   = 8459
ELEMENT_SET_NO = 999
REV_AT_EPOCH   = 63276
BSTAR          = .7932218E-4
MEAN_MOTION_DOT = .215E-5
MEAN_MOTION_DDOT = 0

CCSDS_OMM_VERS = 2.0
CREATION_DATE  = 
ORIGINATOR     = 

OBJECT_NAME    = SL-3 R/B
OBJECT_ID      = 1977-057B
CENTER_NAME    = EARTH
REF_FRAME      = TEME
TIME_SYSTEM    = UTC
MEAN_ELEMENT_THEORY = SGP/SGP4

EPOCH          = 2026-03-15T22:25:18.817248
MEAN_MOTION    = 15.45685741
ECCENTRICITY   = .00061623
INCLINATION    = 97.5775
RA_OF_ASC_NODE = 247.1313
ARG_OF_PERICENTER = 258.0426
MEAN_ANOMALY   = 102.0132

EPHEMERIS_TYPE = 0
CLASSIFICATION_TYPE = U
NORAD_CAT_ID   = 10114
ELEMENT_SET_NO = 999
REV_AT_EPOCH   = 66929
BSTAR          = .25317663E-3
MEAN_MOTION_DOT = .12135E-3
MEAN_MOTION_DDOT = 0

CCSDS_OMM_VERS = 2.0
CREATION_DATE  = 
ORIGINATOR     = 

OBJECT_NAME    = SEASAT 1
OBJECT_ID      = 1978-064A
CENTER_NAME    = EARTH
REF_FRAME      = TEME
TIME_SYSTEM    = UTC
MEAN_ELEMENT_THEORY = SGP/SGP4

EPOCH          = 2026-03-15T22:17:55.941216
MEAN_MOTION    = 14.46165444
ECCENTRICITY   = .0002407
INCLINATION    = 108.0097
RA_OF_ASC_NODE = 138.5924
ARG_OF_PERICENTER = 283.3284
MEAN_ANOMALY   = 76.7593

EPHEMERIS_TYPE = 0
CLASSIFICATION_TYPE = U
NORAD_CAT_ID   = 10967
ELEMENT_SET_NO = 999
REV_AT_EPOCH   = 50741
BSTAR          = .96814152E-4
MEAN_MOTION_DOT = .209E-5
MEAN_MOTION_DDOT = 0

CCSDS_OMM_VERS = 2.0
CREATION_DATE  = 
ORIGINATOR     = 

OBJECT_NAME    = SL-14 R/B
OBJECT_ID      = 1979-011B
CENTER_NAME    = EARTH
REF_FRAME      = TEME
TIME_SYSTEM    = UTC
MEAN_ELEMENT_THEORY = SGP/SGP4

EPOCH          = 2026-03-15T18:01:17.737536
MEAN_MOTION    = 14.91915673
ECCENTRICITY   = .00170612
INCLINATION    = 82.5203
RA_OF_ASC_NODE = 90.8176
ARG_OF_PERICENTER = 41.7466
MEAN_ANOMALY   = 318.5052

EPHEMERIS_TYPE = 0
CLASSIFICATION_TYPE = U
NORAD_CAT_ID   = 11267
ELEMENT_SET_NO = 999
REV_AT_EPOCH   = 52968
BSTAR          = .55223662E-4
MEAN_MOTION_DOT = .585E-5
MEAN_MOTION_DDOT = 0

CCSDS_OMM_VERS = 2.0
CREATION_DATE  = 
ORIGINATOR     = 

OBJECT_NAME    = SL-8 R/B
OBJECT_ID      = 1979-089B
CENTER_NAME    = EARTH
REF_FRAME      = TEME
TIME_SYSTEM    = UTC
MEAN_ELEMENT_THEORY = SGP/SGP4

EPOCH          = 2026-03-15T10:23:28.576032
MEAN_MOTION    = 14.42354896
ECCENTRICITY   = .0017081
INCLINATION    = 74.0667
RA_OF_ASC_NODE = 80.4107
ARG_OF_PERICENTER = 252.5105
MEAN_ANOMALY   = 107.4184

EPHEMERIS_TYPE = 0
CLASSIFICATION_TYPE = U
NORAD_CAT_ID   = 11574
ELEMENT_SET_NO = 999
REV_AT_EPOCH   = 43693
BSTAR          = .105898E-3
MEAN_MOTION_DOT = .324E-5
MEAN_MOTION_DDOT = 0

CCSDS_OMM_VERS = 2.0
CREATION_DATE  = 
ORIGINATOR     = 

OBJECT_NAME    = SL-14 R/B
OBJECT_ID      = 1980-005B
CENTER_NAME    = EARTH
REF_FRAME      = TEME
TIME_SYSTEM    = UTC
MEAN_ELEMENT_THEORY = SGP/SGP4

EPOCH          = 2026-03-15T15:12:30.431520
MEAN_MOTION    = 14.90937225
ECCENTRICITY   = .00166708
INCLINATION    = 82.5135
RA_OF_ASC_NODE = 301.5976
ARG_OF_PERICENTER = 139.3496
MEAN_ANOMALY   = 220.8971

EPHEMERIS_TYPE = 0
CLASSIFICATION_TYPE = U
NORAD_CAT_ID   = 11672
ELEMENT_SET_NO = 999
REV_AT_EPOCH   = 47737
BSTAR          = .47127171E-4
MEAN_MOTION_DOT = .492E-5
MEAN_MOTION_DDOT = 0

CCSDS_OMM_VERS = 2.0
CREATION_DATE  = 
ORIGINATOR     = 

OBJECT_NAME    = SL-8 R/B
OBJECT_ID      = 1981-003B
CENTER_NAME    = EARTH
REF_FRAME      = TEME
TIME_SYSTEM    = UTC
MEAN_ELEMENT_THEORY = SGP/SGP4

EPOCH          = 2026-03-15T19:52:37.096032
MEAN_MOTION    = 15.11240198
ECCENTRICITY   = .02615887
INCLINATION    = 82.9378
RA_OF_ASC_NODE = 284.3476
ARG_OF_PERICENTER = 157.2542
MEAN_ANOMALY   = 204.0539

EPHEMERIS_TYPE = 0
CLASSIFICATION_TYPE = U
NORAD_CAT_ID   = 12139
ELEMENT_SET_NO = 999
REV_AT_EPOCH   = 31560
BSTAR          = .49443983E-3
MEAN_MOTION_DOT = .19409E-3
MEAN_MOTION_DDOT = 0

CCSDS_OMM_VERS = 2.0
CREATION_DATE  = 
ORIGINATOR     = 

OBJECT_NAME    = SL-3 R/B
OBJECT_ID      = 1981-046B
CENTER_NAME    = EARTH
REF_FRAME      = TEME
TIME_SYSTEM    = UTC
MEAN_ELEMENT_THEORY = SGP/SGP4

EPOCH          = 2026-03-15T22:46:17.603040
MEAN_MOTION    = 15.42165430
ECCENTRICITY   = .00190505
INCLINATION    = 81.2290
RA_OF_ASC_NODE = 282.2271
ARG_OF_PERICENTER = 0.6221
MEAN_ANOMALY   = 359.5041

EPHEMERIS_TYPE = 0
CLASSIFICATION_TYPE = U
NORAD_CAT_ID   = 12465
ELEMENT_SET_NO = 999
REV_AT_EPOCH   = 43939
BSTAR          = .24151103E-3
MEAN_MOTION_DOT = .10449E-3
MEAN_MOTION_DDOT = 0

CCSDS_OMM_VERS = 2.0
CREATION_DATE  = 
ORIGINATOR     = 

OBJECT_NAME    = SL-3 R/B
OBJECT_ID      = 1981-103B
CENTER_NAME    = EARTH
REF_FRAME      = TEME
TIME_SYSTEM    = UTC
MEAN_ELEMENT_THEORY = SGP/SGP4

EPOCH          = 2026-03-15T21:19:49.694304
MEAN_MOTION    = 15.21459508
ECCENTRICITY   = .00124536
INCLINATION    = 81.1595
RA_OF_ASC_NODE = 206.1603
ARG_OF_PERICENTER = 264.3419
MEAN_ANOMALY   = 95.6392

EPHEMERIS_TYPE = 0
CLASSIFICATION_TYPE = U
NORAD_CAT_ID   = 12904
ELEMENT_SET_NO = 999
REV_AT_EPOCH   = 97417
BSTAR          = .23202027E-3
MEAN_MOTION_DOT = .5248E-4
MEAN_MOTION_DDOT = 0

CCSDS_OMM_VERS = 2.0
CREATION_DATE  = 
ORIGINATOR     = 

OBJECT_NAME    = SL-3 R/B
OBJECT_ID      = 1982-013B
CENTER_NAME    = EARTH
REF_FRAME      = TEME
TIME_SYSTEM    = UTC
MEAN_ELEMENT_THEORY = SGP/SGP4

EPOCH          = 2026-03-15T23:02:26.351808
MEAN_MOTION    = 15.22081353
ECCENTRICITY   = .00230086
INCLINATION    = 81.1761
RA_OF_ASC_NODE = 153.4224
ARG_OF_PERICENTER = 156.4526
MEAN_ANOMALY   = 203.7765

EPHEMERIS_TYPE = 0
CLASSIFICATION_TYPE = U
NORAD_CAT_ID   = 13068
ELEMENT_SET_NO = 999
REV_AT_EPOCH   = 40530
BSTAR          = .1950247E-3
MEAN_MOTION_DOT = .452E-4
MEAN_MOTION_DDOT = 0

CCSDS_OMM_VERS = 2.0
CREATION_DATE  = 
ORIGINATOR     = 

OBJECT_NAME    = SL-3 R/B
OBJECT_ID      = 1982-039B
CENTER_NAME    = EARTH
REF_FRAME      = TEME
TIME_SYSTEM    = UTC
MEAN_ELEMENT_THEORY = SGP/SGP4

EPOCH          = 2026-03-15T21:14:53.312064
MEAN_MOTION    = 15.10119726
ECCENTRICITY   = .00294537
INCLINATION    = 81.1577
RA_OF_ASC_NODE = 208.8188
ARG_OF_PERICENTER = 304.1943
MEAN_ANOMALY   = 55.6491

EPHEMERIS_TYPE = 0
CLASSIFICATION_TYPE = U
NORAD_CAT_ID   = 13154
ELEMENT_SET_NO = 999
REV_AT_EPOCH   = 38257
BSTAR          = .14358176E-3
MEAN_MOTION_DOT = .2386E-4
MEAN_MOTION_DDOT = 0

