ATLAS CENTAUR R/B       
1 06155U 72065B   26074.90961032  .00001173  00000+0  16304-3 0  9994
2 06155  35.0009 269.3023 0032973  61.7647 298.6376 14.77704903842182
SL-8 R/B                
1 08459U 75112B   26074.90252940  .00000215  00000+0  79322-4 0  9996
2 08459  74.0636   7.4839 0014441  98.1855 262.0938 14.38207454632767
SL-3 R/B                
1 10114U 77057B   26074.93424557  .00012135  00000+0  25318-3 0  9994
2 10114  97.5775 247.1313 0006162 258.0426 102.0132 15.45685741669299
SEASAT 1                
1 10967U 78064A   26074.92911969  .00000209  00000+0  96814-4 0  9995
2 10967 108.0097 138.5924 0002407 283.3284  76.7593 14.46165444507418
SL-14 R/B               
1 11267U 79011B   26074.75089974  .00000585  00000+0  55224-4 0  9992
2 11267  82.5203  90.8176 0017061  41.7466 318.5052 14.91915673529683
SL-8 R/B                
1 11574U 79089B   26074.43296963  .00000324  00000+0  10590-3 0  9998
2 11574  74.0667  80.4107 0017081 252.5105 107.4184 14.42354896436933
SL-14 R/B               
1 11672U 80005B   26074.63368555  .00000492  00000+0  47127-4 0  9999
2 11672  82.5135 301.5976 0016670 139.3496 220.8971 14.90937225477378
SL-8 R/B                
1 12139U 81003B   26074.82820713  .00019409  00000+0  49444-3 0  9998
2 12139  82.9378 284.3476 0261588 157.2542 204.0539 15.11240198315605
SL-3 R/B                
1 12465U 81046B   26074.94881485  .00010449  00000+0  24151-3 0  9996
2 12465  81.2290 282.2271 0019050   0.6221 359.5041 15.42165430439398
SL-3 R/B                
1 12904U 81103B   26074.88876961  .00005248  00000+0  23202-3 0  9991
2 12904  81.1595 206.1603 0012453 264.3419  95.6392 15.21459508974171
SL-3 R/B                
1 13068U 82013B   26074.96002722  .00004520  00000+0  19502-3 0  9999
2 13068  81.1761 153.4224 0023008 156.4526 203.7765 15.22081353405309
SL-3 R/B                
1 13154U 82039B   26074.88533926  .00002386  00000+0  14358-3 0  9991
2 13154  81.1577 208.8188 0029453 304.1943  55.6491 15.10119726382575
